KUIPER-00121            
1 65950U 25228D   25303.81993163  .00038786  00000+0  11537-2 0  9997
2 65950  51.8792 227.3929 0005596 208.5137 151.5543 15.34345143  3824
KUIPER-00122            
1 65951U 25228E   25303.82126757  .00041238  00000+0  12308-2 0  9999
2 65951  51.8786 227.3948 0005913 220.5691 139.4854 15.34207606  3822
KUIPER-00123            
1 65952U 25228F   25303.82025729 -.00133802  00000+0 -40602-2 0  9996
2 65952  51.8779 227.3856 0005351 201.6597 158.4163 15.34035438  3820
KUIPER-00124            
1 65953U 25228G   25303.82177492  .00044697  00000+0  13340-2 0  9992
2 65953  51.8792 227.4019 0005428 219.4874 140.5716 15.34173551  3823
KUIPER-00125            
1 65954U 25228H   25303.81722749  .00040909  00000+0  12066-2 0  9999
2 65954  51.8781 227.3668 0005674 201.5570 158.5177 15.34586289  3825
KUIPER-00126            
1 65955U 25228J   25303.82055630  .00028233  00000+0  84512-3 0  9991
2 65955  51.8782 227.3922 0005969 213.8702 146.1903 15.34301037  3826
KUIPER-00127            
1 65956U 25228K   25303.81371384  .00042252  00000+0  12331-2 0  9994
2 65956  51.8788 227.3482 0006115 192.2576 167.8262 15.34901995  3824
KUIPER-00128            
1 65957U 25228L   25303.81612243  .00035636  00000+0  10500-2 0  9991
2 65957  51.8787 227.3663 0005843 196.1819 163.8981 15.34682297  3820
KUIPER-00129            
1 65958U 25228M   25303.81574160 -.00304063  00000+0 -93622-2 0  9998
2 65958  51.8776 227.3622 0004722 170.8526 189.2546 15.34330153  3823
KUIPER-00130            
1 65959U 25228N   25303.81831428  .00047696  00000+0  14068-2 0  9993
2 65959  51.8781 227.3743 0005197 206.2713 153.8010 15.34517530  3822
KUIPER-00134            
1 65960U 25228P   25303.81943461  .00036306  00000+0  10792-2 0  9992
2 65960  51.8779 227.3811 0005325 209.7727 150.2956 15.34398986  3825
KUIPER-00135            
1 65961U 25228Q   25303.81905051  .00036521  00000+0  10858-2 0  9998
2 65961  51.8793 227.3861 0005111 197.9038 162.1768 15.34389875  3823
