CCSDS_OMM_VERS = 2.0
CREATION_DATE  = 
ORIGINATOR     = 

OBJECT_NAME    = KUIPER-00121
OBJECT_ID      = 2025-228D
CENTER_NAME    = EARTH
REF_FRAME      = TEME
TIME_SYSTEM    = UTC
MEAN_ELEMENT_THEORY = SGP/SGP4

EPOCH          = 2025-10-30T19:40:42.092832
MEAN_MOTION    = 15.34345143
ECCENTRICITY   = .0005596
INCLINATION    = 51.8792
RA_OF_ASC_NODE = 227.3929
ARG_OF_PERICENTER = 208.5137
MEAN_ANOMALY   = 151.5543

EPHEMERIS_TYPE = 0
CLASSIFICATION_TYPE = U
NORAD_CAT_ID   = 65950
ELEMENT_SET_NO = 999
REV_AT_EPOCH   = 382
BSTAR          = .11537E-2
MEAN_MOTION_DOT = .38786E-3
MEAN_MOTION_DDOT = 0

CCSDS_OMM_VERS = 2.0
CREATION_DATE  = 
ORIGINATOR     = 

OBJECT_NAME    = KUIPER-00122
OBJECT_ID      = 2025-228E
CENTER_NAME    = EARTH
REF_FRAME      = TEME
TIME_SYSTEM    = UTC
MEAN_ELEMENT_THEORY = SGP/SGP4

EPOCH          = 2025-10-30T19:42:37.518048
MEAN_MOTION    = 15.34207606
ECCENTRICITY   = .0005913
INCLINATION    = 51.8786
RA_OF_ASC_NODE = 227.3948
ARG_OF_PERICENTER = 220.5691
MEAN_ANOMALY   = 139.4854

EPHEMERIS_TYPE = 0
CLASSIFICATION_TYPE = U
NORAD_CAT_ID   = 65951
ELEMENT_SET_NO = 999
REV_AT_EPOCH   = 382
BSTAR          = .12308E-2
MEAN_MOTION_DOT = .41238E-3
MEAN_MOTION_DDOT = 0

CCSDS_OMM_VERS = 2.0
CREATION_DATE  = 
ORIGINATOR     = 

OBJECT_NAME    = KUIPER-00123
OBJECT_ID      = 2025-228F
CENTER_NAME    = EARTH
REF_FRAME      = TEME
TIME_SYSTEM    = UTC
MEAN_ELEMENT_THEORY = SGP/SGP4

EPOCH          = 2025-10-30T19:41:10.229856
MEAN_MOTION    = 15.34035438
ECCENTRICITY   = .0005351
INCLINATION    = 51.8779
RA_OF_ASC_NODE = 227.3856
ARG_OF_PERICENTER = 201.6597
MEAN_ANOMALY   = 158.4163

EPHEMERIS_TYPE = 0
CLASSIFICATION_TYPE = U
NORAD_CAT_ID   = 65952
ELEMENT_SET_NO = 999
REV_AT_EPOCH   = 382
BSTAR          = -.40602E-2
MEAN_MOTION_DOT = -.133802E-2
MEAN_MOTION_DDOT = 0

CCSDS_OMM_VERS = 2.0
CREATION_DATE  = 
ORIGINATOR     = 

OBJECT_NAME    = KUIPER-00124
OBJECT_ID      = 2025-228G
CENTER_NAME    = EARTH
REF_FRAME      = TEME
TIME_SYSTEM    = UTC
MEAN_ELEMENT_THEORY = SGP/SGP4

EPOCH          = 2025-10-30T19:43:21.353088
MEAN_MOTION    = 15.34173551
ECCENTRICITY   = .0005428
INCLINATION    = 51.8792
RA_OF_ASC_NODE = 227.4019
ARG_OF_PERICENTER = 219.4874
MEAN_ANOMALY   = 140.5716

EPHEMERIS_TYPE = 0
CLASSIFICATION_TYPE = U
NORAD_CAT_ID   = 65953
ELEMENT_SET_NO = 999
REV_AT_EPOCH   = 382
BSTAR          = .1334E-2
MEAN_MOTION_DOT = .44697E-3
MEAN_MOTION_DDOT = 0

CCSDS_OMM_VERS = 2.0
CREATION_DATE  = 
ORIGINATOR     = 

OBJECT_NAME    = KUIPER-00125
OBJECT_ID      = 2025-228H
CENTER_NAME    = EARTH
REF_FRAME      = TEME
TIME_SYSTEM    = UTC
MEAN_ELEMENT_THEORY = SGP/SGP4

EPOCH          = 2025-10-30T19:36:48.455136
MEAN_MOTION    = 15.34586289
ECCENTRICITY   = .0005674
INCLINATION    = 51.8781
RA_OF_ASC_NODE = 227.3668
ARG_OF_PERICENTER = 201.5570
MEAN_ANOMALY   = 158.5177

EPHEMERIS_TYPE = 0
CLASSIFICATION_TYPE = U
NORAD_CAT_ID   = 65954
ELEMENT_SET_NO = 999
REV_AT_EPOCH   = 382
BSTAR          = .12066E-2
MEAN_MOTION_DOT = .40909E-3
MEAN_MOTION_DDOT = 0

CCSDS_OMM_VERS = 2.0
CREATION_DATE  = 
ORIGINATOR     = 

OBJECT_NAME    = KUIPER-00126
OBJECT_ID      = 2025-228J
CENTER_NAME    = EARTH
REF_FRAME      = TEME
TIME_SYSTEM    = UTC
MEAN_ELEMENT_THEORY = SGP/SGP4

EPOCH          = 2025-10-30T19:41:36.064320
MEAN_MOTION    = 15.34301037
ECCENTRICITY   = .0005969
INCLINATION    = 51.8782
RA_OF_ASC_NODE = 227.3922
ARG_OF_PERICENTER = 213.8702
MEAN_ANOMALY   = 146.1903

EPHEMERIS_TYPE = 0
CLASSIFICATION_TYPE = U
NORAD_CAT_ID   = 65955
ELEMENT_SET_NO = 999
REV_AT_EPOCH   = 382
BSTAR          = .84512E-3
MEAN_MOTION_DOT = .28233E-3
MEAN_MOTION_DDOT = 0

CCSDS_OMM_VERS = 2.0
CREATION_DATE  = 
ORIGINATOR     = 

OBJECT_NAME    = KUIPER-00127
OBJECT_ID      = 2025-228K
CENTER_NAME    = EARTH
REF_FRAME      = TEME
TIME_SYSTEM    = UTC
MEAN_ELEMENT_THEORY = SGP/SGP4

EPOCH          = 2025-10-30T19:31:44.875776
MEAN_MOTION    = 15.34901995
ECCENTRICITY   = .0006115
INCLINATION    = 51.8788
RA_OF_ASC_NODE = 227.3482
ARG_OF_PERICENTER = 192.2576
MEAN_ANOMALY   = 167.8262

EPHEMERIS_TYPE = 0
CLASSIFICATION_TYPE = U
NORAD_CAT_ID   = 65956
ELEMENT_SET_NO = 999
REV_AT_EPOCH   = 382
BSTAR          = .12331E-2
MEAN_MOTION_DOT = .42252E-3
MEAN_MOTION_DDOT = 0

CCSDS_OMM_VERS = 2.0
CREATION_DATE  = 
ORIGINATOR     = 

OBJECT_NAME    = KUIPER-00128
OBJECT_ID      = 2025-228L
CENTER_NAME    = EARTH
REF_FRAME      = TEME
TIME_SYSTEM    = UTC
MEAN_ELEMENT_THEORY = SGP/SGP4

EPOCH          = 2025-10-30T19:35:12.977952
MEAN_MOTION    = 15.34682297
ECCENTRICITY   = .0005843
INCLINATION    = 51.8787
RA_OF_ASC_NODE = 227.3663
ARG_OF_PERICENTER = 196.1819
MEAN_ANOMALY   = 163.8981

EPHEMERIS_TYPE = 0
CLASSIFICATION_TYPE = U
NORAD_CAT_ID   = 65957
ELEMENT_SET_NO = 999
REV_AT_EPOCH   = 382
BSTAR          = .105E-2
MEAN_MOTION_DOT = .35636E-3
MEAN_MOTION_DDOT = 0

CCSDS_OMM_VERS = 2.0
CREATION_DATE  = 
ORIGINATOR     = 

OBJECT_NAME    = KUIPER-00129
OBJECT_ID      = 2025-228M
CENTER_NAME    = EARTH
REF_FRAME      = TEME
TIME_SYSTEM    = UTC
MEAN_ELEMENT_THEORY = SGP/SGP4

EPOCH          = 2025-10-30T19:34:40.074240
MEAN_MOTION    = 15.34330153
ECCENTRICITY   = .0004722
INCLINATION    = 51.8776
RA_OF_ASC_NODE = 227.3622
ARG_OF_PERICENTER = 170.8526
MEAN_ANOMALY   = 189.2546

EPHEMERIS_TYPE = 0
CLASSIFICATION_TYPE = U
NORAD_CAT_ID   = 65958
ELEMENT_SET_NO = 999
REV_AT_EPOCH   = 382
BSTAR          = -.93622E-2
MEAN_MOTION_DOT = -.304063E-2
MEAN_MOTION_DDOT = 0

CCSDS_OMM_VERS = 2.0
CREATION_DATE  = 
ORIGINATOR     = 

OBJECT_NAME    = KUIPER-00130
OBJECT_ID      = 2025-228N
CENTER_NAME    = EARTH
REF_FRAME      = TEME
TIME_SYSTEM    = UTC
MEAN_ELEMENT_THEORY = SGP/SGP4

EPOCH          = 2025-10-30T19:38:22.353792
MEAN_MOTION    = 15.34517530
ECCENTRICITY   = .0005197
INCLINATION    = 51.8781
RA_OF_ASC_NODE = 227.3743
ARG_OF_PERICENTER = 206.2713
MEAN_ANOMALY   = 153.8010

EPHEMERIS_TYPE = 0
CLASSIFICATION_TYPE = U
NORAD_CAT_ID   = 65959
ELEMENT_SET_NO = 999
REV_AT_EPOCH   = 382
BSTAR          = .14068E-2
MEAN_MOTION_DOT = .47696E-3
MEAN_MOTION_DDOT = 0

CCSDS_OMM_VERS = 2.0
CREATION_DATE  = 
ORIGINATOR     = 

OBJECT_NAME    = KUIPER-00134
OBJECT_ID      = 2025-228P
CENTER_NAME    = EARTH
REF_FRAME      = TEME
TIME_SYSTEM    = UTC
MEAN_ELEMENT_THEORY = SGP/SGP4

EPOCH          = 2025-10-30T19:39:59.150304
MEAN_MOTION    = 15.34398986
ECCENTRICITY   = .0005325
INCLINATION    = 51.8779
RA_OF_ASC_NODE = 227.3811
ARG_OF_PERICENTER = 209.7727
MEAN_ANOMALY   = 150.2956

EPHEMERIS_TYPE = 0
CLASSIFICATION_TYPE = U
NORAD_CAT_ID   = 65960
ELEMENT_SET_NO = 999
REV_AT_EPOCH   = 382
BSTAR          = .10792E-2
MEAN_MOTION_DOT = .36306E-3
MEAN_MOTION_DDOT = 0

CCSDS_OMM_VERS = 2.0
CREATION_DATE  = 
ORIGINATOR     = 

OBJECT_NAME    = KUIPER-00135
OBJECT_ID      = 2025-228Q
CENTER_NAME    = EARTH
REF_FRAME      = TEME
TIME_SYSTEM    = UTC
MEAN_ELEMENT_THEORY = SGP/SGP4

EPOCH          = 2025-10-30T19:39:25.964064
MEAN_MOTION    = 15.34389875
ECCENTRICITY   = .0005111
INCLINATION    = 51.8793
RA_OF_ASC_NODE = 227.3861
ARG_OF_PERICENTER = 197.9038
MEAN_ANOMALY   = 162.1768

EPHEMERIS_TYPE = 0
CLASSIFICATION_TYPE = U
NORAD_CAT_ID   = 65961
ELEMENT_SET_NO = 999
REV_AT_EPOCH   = 382
BSTAR          = .10858E-2
MEAN_MOTION_DOT = .36521E-3
MEAN_MOTION_DDOT = 0

